NORAD_CAT_ID,OBJECT_NAME,OBJECT_TYPE,EPOCH,MEAN_MOTION,ECCENTRICITY,INCLINATION,RA_OF_ASC_NODE,ARG_OF_PERICENTER,MEAN_ANOMALY,BSTAR,MEAN_MOTION_DOT,MEAN_MOTION_DDOT,TLE_LINE0,TLE_LINE1,TLE_LINE2,SEMIMAJOR_AXIS,PERIOD,APOGEE,PERIGEE,DECAYED
51966.0,STARLINK-3699,PAYLOAD,2023-10-07 15:05:51,15.06413817,0.0001489,53.0554,39.5248,94.8125,265.3034,0.00049147,7.049e-05,0.0,0 STARLINK-3699,1 51966U 22025L   23280.62906476  .00007049  00000-0  49147-3 0  9991,2 51966  53.0554  39.5248 0001489  94.8125 265.3034 15.06413817 88761,6925.306,95.591,548.202,546.14,0.0
51966.0,STARLINK-3699,PAYLOAD,2023-10-08 00:39:05,15.06401223,0.0001613,53.0567,37.7359,89.2572,270.8602,9.9555e-05,1.202e-05,0.0,0 STARLINK-3699,1 51966U 22025L   23281.02714708  .00001202  00000-0  99555-4 0  9995,2 51966  53.0567  37.7359 0001613  89.2572 270.8602 15.06401223 88828,6925.345,95.592,548.327,546.093,0.0
51966.0,STARLINK-3699,PAYLOAD,2023-10-08 13:23:24,15.06399235,0.0001597,53.055,35.3545,114.4991,245.6164,0.00018959,2.543e-05,0.0,0 STARLINK-3699,1 51966U 22025L   23281.55792436  .00002543  00000-0  18959-3 0  9994,2 51966  53.0550  35.3545 0001597 114.4991 245.6164 15.06399235 87818,6925.351,95.592,548.322,546.11,0.0
51966.0,STARLINK-3699,PAYLOAD,2023-10-08 18:10:01,15.06408672,0.0001348,53.0558,34.4623,92.1258,267.9886,0.00021917,2.985e-05,0.0,0 STARLINK-3699,1 51966U 22025L   23281.75696027  .00002985  00000-0  21917-3 0  9993,2 51966  53.0558  34.4623 0001348  92.1258 267.9886 15.06408672 87842,6925.322,95.592,548.121,546.253,0.0
51966.0,STARLINK-3699,PAYLOAD,2023-10-09 00:32:11,15.0640032,0.0001294,53.0564,33.2716,70.7351,289.3778,7.5718e-05,8.47e-06,0.0,0 STARLINK-3699,1 51966U 22025L   23282.02235202  .00000847  00000-0  75718-4 0  9992,2 51966  53.0564  33.2716 0001294  70.7351 289.3778 15.06400320 88970,6925.348,95.592,548.109,546.316,0.0
51966.0,STARLINK-3699,PAYLOAD,2023-10-09 13:16:33,15.06341856,0.0002167,53.0565,30.8911,77.785,282.3382,0.0018064,0.00026685,0.0,0 STARLINK-3699,1 51966U 22025L   23282.55316069  .00026685  00000-0  18064-2 0  9998,2 51966  53.0565  30.8911 0002167  77.7850 282.3382 15.06341856 87962,6925.527,95.596,548.893,545.891,0.0
51966.0,STARLINK-3699,PAYLOAD,2023-10-09 14:52:02,15.06409666,0.0001444,53.0566,30.5897,74.7179,285.397,7.0434e-05,7.68e-06,0.0,0 STARLINK-3699,1 51966U 22025L   23282.61946984  .00000768  00000-0  70434-4 0  9995,2 51966  53.0566  30.5897 0001444  74.7179 285.3970 15.06409666 87972,6925.319,95.592,548.184,546.184,0.0
51966.0,STARLINK-3699,PAYLOAD,2023-10-10 13:09:35,15.06411677,0.0001496,53.0561,26.4223,101.0274,259.0883,0.00024676,3.397e-05,0.0,0 STARLINK-3699,1 51966U 22025L   23283.54832331  .00003397  00000-0  24676-3 0  9995,2 51966  53.0561  26.4223 0001496 101.0274 259.0883 15.06411677 89205,6925.313,95.591,548.214,546.142,0.0
51966.0,STARLINK-3699,PAYLOAD,2023-10-10 14:45:07,15.06413101,0.0001406,53.0565,26.1264,80.0201,280.0946,0.00035295,4.981e-05,0.0,0 STARLINK-3699,1 51966U 22025L   23283.61467081  .00004981  00000-0  35295-3 0  9998,2 51966  53.0565  26.1264 0001406  80.0201 280.0946 15.06413101 88126,6925.308,95.591,548.147,546.2,0.0
51966.0,STARLINK-3699,PAYLOAD,2023-10-11 13:02:41,15.06396508,0.0001605,53.0563,21.9531,87.6988,272.4184,8.4209e-06,-1.56e-06,0.0,0 STARLINK-3699,1 51966U 22025L   23284.54353560 -.00000156  00000-0  84209-5 0  9999,2 51966  53.0563  21.9531 0001605  87.6988 272.4184 15.06396508 89356,6925.359,95.592,548.336,546.113,0.0
51966.0,STARLINK-3699,PAYLOAD,2023-10-12 12:55:46,15.06407153,0.0001825,53.0571,17.4858,92.7772,267.3426,0.00032444,4.555e-05,0.0,0 STARLINK-3699,1 51966U 22025L   23285.53873759  .00004555  00000-0  32444-3 0  9994,2 51966  53.0571  17.4858 0001825  92.7772 267.3426 15.06407153 88416,6925.327,95.592,548.456,545.928,0.0
51966.0,STARLINK-3699,PAYLOAD,2023-10-12 14:31:18,15.06408824,0.0001786,53.0568,17.187,88.1859,271.9335,0.00033033,4.643e-05,0.0,0 STARLINK-3699,1 51966U 22025L   23285.60508093  .00004643  00000-0  33033-3 0  9991,2 51966  53.0568  17.1870 0001786  88.1859 271.9335 15.06408824 89512,6925.322,95.592,548.423,545.95,0.0
51966.0,STARLINK-3699,PAYLOAD,2023-10-13 12:48:52,15.06407199,0.0001789,53.0563,13.0193,89.2513,270.8681,0.00040567,5.767e-05,0.0,0 STARLINK-3699,1 51966U 22025L   23286.53394411  .00005767  00000-0  40567-3 0  9999,2 51966  53.0563  13.0193 0001789  89.2513 270.8681 15.06407199 89653,6925.326,95.592,548.43,545.953,0.0
51966.0,STARLINK-3699,PAYLOAD,2023-10-13 22:22:06,15.06410347,0.000177,53.0562,11.2326,87.9395,272.1797,0.00038623,5.478e-05,0.0,0 STARLINK-3699,1 51966U 22025L   23286.93202277  .00005478  00000-0  38623-3 0  9990,2 51966  53.0562  11.2326 0001770  87.9395 272.1797 15.06410347 88621,6925.317,95.591,548.408,545.956,0.0
51966.0,STARLINK-3699,PAYLOAD,2023-10-14 12:41:57,15.06422036,0.0001692,53.0569,8.5509,82.1928,277.9253,0.00058315,8.42e-05,0.0,0 STARLINK-3699,1 51966U 22025L   23287.52913593  .00008420  00000-0  58315-3 0  9996,2 51966  53.0569   8.5509 0001692  82.1928 277.9253 15.06422036 88710,6925.281,95.591,548.318,545.974,0.0
51966.0,STARLINK-3699,PAYLOAD,2023-10-14 15:53:01,15.06424792,0.0001666,53.0551,7.9571,87.4513,272.6666,0.00063846,9.247e-05,0.0,0 STARLINK-3699,1 51966U 22025L   23287.66182725  .00009247  00000-0  63846-3 0  9999,2 51966  53.0551   7.9571 0001666  87.4513 272.6666 15.06424792 89826,6925.273,95.591,548.291,545.984,0.0
51966.0,STARLINK-3699,PAYLOAD,2023-10-14 22:15:12,15.06384835,0.0002804,53.0567,6.7646,88.6599,271.4711,-0.00025997,-4.151e-05,0.0,0 STARLINK-3699,1 51966U 22025L   23287.92723034 -.00004151  00000-0 -25997-3 0  9998,2 51966  53.0567   6.7646 0002804  88.6599 271.4711 15.06384835 89860,6925.395,95.593,549.202,545.318,0.0
51966.0,STARLINK-3699,PAYLOAD,2023-10-15 14:10:36,15.06383659,0.0001903,53.0568,3.7877,86.3137,273.8069,-0.00021234,-3.442e-05,0.0,0 STARLINK-3699,1 51966U 22025L   23288.59070369 -.00003442  00000-0 -21234-3 0  9990,2 51966  53.0568   3.7877 0001903  86.3137 273.8069 15.06383659 88871,6925.399,95.593,548.582,545.946,0.0
51966.0,STARLINK-3699,PAYLOAD,2023-10-16 04:30:28,15.06403744,0.0001597,53.0559,1.1089,102.2043,257.9125,0.00082739,0.00012065,0.0,0 STARLINK-3699,1 51966U 22025L   23289.18782408  .00012065  00000-0  82739-3 0  9996,2 51966  53.0559   1.1089 0001597 102.2043 257.9125 15.06403744 90058,6925.337,95.592,548.308,546.096,0.0
51966.0,STARLINK-3699,PAYLOAD,2023-10-16 12:28:09,15.06424675,0.0001548,53.0552,359.6181,100.5919,259.5244,0.0016401,0.00024249,0.0,0 STARLINK-3699,1 51966U 22025L   23289.51955585  .00024249  00000-0  16401-2 0  9990,2 51966  53.0552 359.6181 0001548 100.5919 259.5244 15.06424675 89014,6925.273,95.591,548.21,546.066,0.0
51966.0,STARLINK-3699,PAYLOAD,2023-10-17 10:45:42,15.06409498,0.0001485,53.0548,355.4492,87.5112,272.6046,0.0013442,0.00019802,0.0,0 STARLINK-3699,1 51966U 22025L   23290.44840976  .00019802  00000-0  13442-2 0  9992,2 51966  53.0548 355.4492 0001485  87.5112 272.6046 15.06409498 90246,6925.319,95.592,548.213,546.156,0.0
51966.0,STARLINK-3699,PAYLOAD,2023-10-17 21:54:29,15.06406402,0.0001814,53.0549,353.364,89.4704,270.6493,0.0013206,0.00019447,0.0,0 STARLINK-3699,1 51966U 22025L   23290.91283876  .00019447  00000-0  13206-2 0  9997,2 51966  53.0549 353.3640 0001814  89.4704 270.6493 15.06406402 89225,6925.329,95.592,548.45,545.938,0.0
51966.0,STARLINK-3699,PAYLOAD,2023-10-18 10:38:48,15.06406463,0.0002002,53.0557,350.9822,90.5866,269.5352,0.00057902,8.355e-05,0.0,0 STARLINK-3699,1 51966U 22025L   23291.44361308  .00008355  00000-0  57902-3 0  9991,2 51966  53.0557 350.9822 0002002  90.5866 269.5352 15.06406463 90399,6925.329,95.592,548.58,545.807,0.0
51966.0,STARLINK-3699,PAYLOAD,2023-10-19 04:09:44,15.06401107,0.0001705,53.056,347.7028,102.4779,257.64,0.00042731,6.089e-05,0.0,0 STARLINK-3699,1 51966U 22025L   23292.17342941  .00006089  00000-0  42731-3 0  9990,2 51966  53.0560 347.7028 0001705 102.4779 257.6400 15.06401107 90505,6925.345,95.592,548.391,546.029,0.0
51966.0,STARLINK-3699,PAYLOAD,2023-10-19 10:31:53,15.0640953,0.0001685,53.0566,346.5123,104.1867,255.9309,0.00040733,5.792e-05,0.0,0 STARLINK-3699,1 51966U 22025L   23292.43881339  .00005792  00000-0  40733-3 0  9998,2 51966  53.0566 346.5123 0001685 104.1867 255.9309 15.06409530 89457,6925.319,95.592,548.351,546.017,0.0
51966.0,STARLINK-3699,PAYLOAD,2023-10-20 04:02:49,15.0639706,0.0001654,53.0563,343.2351,114.9891,245.127,9.9286e-05,1.197e-05,0.0,0 STARLINK-3699,1 51966U 22025L   23293.16863271  .00001197  00000-0  99286-4 0  9997,2 51966  53.0563 343.2351 0001654 114.9891 245.1270 15.06397060 90659,6925.358,95.592,548.368,546.077,0.0
51966.0,STARLINK-3699,PAYLOAD,2023-10-20 08:49:26,15.06400531,0.0001699,53.0565,342.3426,107.5034,252.6141,0.00016776,2.218e-05,0.0,0 STARLINK-3699,1 51966U 22025L   23293.36767295  .00002218  00000-0  16776-3 0  9995,2 51966  53.0565 342.3426 0001699 107.5034 252.6141 15.06400531 89599,6925.347,95.592,548.389,546.035,0.0
51966.0,STARLINK-3699,PAYLOAD,2023-10-21 10:18:05,15.06399137,0.0001811,53.0568,337.5812,107.3337,252.785,0.00012182,1.533e-05,0.0,0 STARLINK-3699,1 51966U 22025L   23294.42922702  .00001533  00000-0  12182-3 0  9995,2 51966  53.0568 337.5812 0001811 107.3337 252.7850 15.06399137 90844,6925.351,95.592,548.47,545.962,0.0
51966.0,STARLINK-3699,PAYLOAD,2023-10-21 19:51:19,15.06400147,0.0001345,53.0555,335.7904,103.7301,256.3837,0.00020341,2.75e-05,0.0,0 STARLINK-3699,1 51966U 22025L   23294.82730561  .00002750  00000-0  20341-3 0  9997,2 51966  53.0555 335.7904 0001345 103.7301 256.3837 15.06400147 89819,6925.348,95.592,548.145,546.282,0.0
51966.0,STARLINK-3699,PAYLOAD,2023-10-22 10:11:10,15.06396714,0.0001789,53.057,333.1091,93.9945,266.1249,0.00010883,1.34e-05,0.0,0 STARLINK-3699,1 51966U 22025L   23295.42443185  .00001340  00000-0  10883-3 0  9991,2 51966  53.0570 333.1091 0001789  93.9945 266.1249 15.06396714 89901,6925.359,95.592,548.463,545.985,0.0
